ONEWEB-0424             
1 50497U 21132AE  24105.07715982  .00000071  00000+0  14739-3 0  9999
2 50497  87.9138 133.5373 0002451 103.3016 256.8389 13.18686091118266
ONEWEB-0426             
1 50498U 21132AF  24105.11509058  .00000092  00000+0  20132-3 0  9997
2 50498  87.9132 133.5498 0002444  78.6102 281.5305 13.18685889118224
ONEWEB-0427             
1 50499U 21132AG  24105.07555953  .00000066  00000+0  13360-3 0  9994
2 50499  87.9135 133.5341 0002268  90.0334 270.1058 13.18684241118257
ONEWEB-0429             
1 50500U 21132AH  24104.60766756  .00000015  00000+0  50785-5 0  9998
2 50500  87.9141 133.6294 0001956  93.9907 266.1449 13.18684950118151
ONEWEB-0430             
1 50501U 21132AJ  24105.58298732  .00000034  00000+0  54046-4 0  9995
2 50501  87.9136 133.4421 0002122 106.0527 254.0838 13.18687207118321
ONEWEB-0432             
1 50502U 21132AK  24105.61460798  .00000011  00000+0 -42469-5 0  9996
2 50502  87.9137 133.4293 0001951  95.2866 264.8488 13.18686814118293
ONEWEB-0440             
1 50503U 21132AL  24105.14670622 -.00000059  00000+0 -18331-3 0  9996
2 50503  87.9138 133.5094 0001519  81.1232 279.0072 13.18685650118212
ONEWEB-0450             
1 50504U 21132AM  24105.59577283 -.00000045  00000+0 -14749-3 0  9999
2 50504  87.9139 133.4484 0001755 101.7504 258.3825 13.18687054118305
